COSMOS 2550             
1 48865U 21056A   25307.34068019  .00007956  00000+0  24735-3 0  9993
2 48865  67.1434  63.1622 0008292 270.1320  89.8885 15.33838359244086
CZ-2C R/B               
1 52794U 22058K   25307.53814197  .00029094  00000+0  56952-3 0  9992
2 52794  50.1917 243.0601 0050081  35.1335 325.2918 15.45752030190565
GSLV R/B                
1 54149U 22138AN  25306.45335066  .00003073  00000+0  27221-3 0  9996
2 54149  87.3857 208.9543 0019010 252.5284 107.3870 14.95793014164902
XRISM                   
1 57800U 23137A   25306.51268992  .00006402  00000+0  38162-3 0  9998
2 57800  31.0029  25.1476 0008234 199.0815 160.9515 15.09705798118549
ACS3                    
1 59588U 24077B   25307.79299243  .00014425  00000+0  13111-1 0  9990
2 59588  97.3296 272.0248 0039358  31.0639 329.2836 13.83081090 76759
